[{"OBJECT_NAME":"STARLINK-32377","OBJECT_ID":"2024-204Q","EPOCH":"2026-03-09T10:56:32.334720","MEAN_MOTION":15.30191472,"ECCENTRICITY":7.002e-5,"INCLINATION":53.1601,"RA_OF_ASC_NODE":128.0286,"ARG_OF_PERICENTER":64.339,"MEAN_ANOMALY":295.7684,"EPHEMERIS_TYPE":0,"CLASSIFICATION_TYPE":"U","NORAD_CAT_ID":61888,"ELEMENT_SET_NO":999,"REV_AT_EPOCH":7505,"BSTAR":-1.1329003e-5,"MEAN_MOTION_DOT":-6.94e-6,"MEAN_MOTION_DDOT":0},{"OBJECT_NAME":"SL-3 R\/B","OBJECT_ID":"1981-065B","EPOCH":"2026-03-09T21:58:16.284000","MEAN_MOTION":15.33300883,"ECCENTRICITY":0.00117648,"INCLINATION":97.6337,"RA_OF_ASC_NODE":111.1786,"ARG_OF_PERICENTER":10.529,"MEAN_ANOMALY":349.6196,"EPHEMERIS_TYPE":0,"CLASSIFICATION_TYPE":"U","NORAD_CAT_ID":12586,"ELEMENT_SET_NO":999,"REV_AT_EPOCH":43499,"BSTAR":0.00030084921,"MEAN_MOTION_DOT":9.62e-5,"MEAN_MOTION_DDOT":0}]
